ONEWEB-0369             
1 49295U 21090S   23283.34010466 -.00000248  00000+0 -65133-3 0  9999
2 49295  87.9209 140.1942 0001855  79.2966 280.8376 13.19724860 98333
ONEWEB-0370             
1 49296U 21090T   23283.57610570  .00000048  00000+0  85213-4 0  9995
2 49296  87.9142 109.6749 0001633  88.5490 271.5830 13.20770615101725
ONEWEB-0371             
1 49297U 21090U   23282.66567816 -.00000825  00000+0 -20943-2 0  9991
2 49297  87.9212 140.3173 0002218  83.7687 276.3698 13.19731154 96992
ONEWEB-0372             
1 49298U 21090V   23283.03529337  .00000150  00000+0  33773-3 0  9995
2 49298  87.9152 109.7817 0001809  73.3177 286.8154 13.20772653101625
ONEWEB-0373             
1 49299U 21090W   23283.51717949  .00000130  00000+0  28710-3 0  9990
2 49299  87.9220 109.6571 0002055  94.7414 265.3954 13.20773429102873
ONEWEB-0374             
1 49300U 21090X   23283.56969927  .00000169  00000+0  42188-3 0  9990
2 49300  87.8953 124.9171 0001799  84.2237 275.9098 13.14501753100028
ONEWEB-0375             
1 49301U 21090Y   23283.05000896  .00000042  00000+0  71608-4 0  9996
2 49301  87.9140 109.7817 0001736 113.3215 246.8101 13.20772165102306
ONEWEB-0376             
1 49302U 21090Z   23283.34643963  .00000072  00000+0  14657-3 0  9990
2 49302  87.9213 140.1994 0001944  72.6867 287.4478 13.19725914 98360
